{
  "type": "FeatureCollection",
  "name": "Tamil Nadu State Boundary",
  "crs": {
    "type": "name",
    "properties": { "name": "urn:ogc:def:crs:OGC:1.3:CRS84" }
  },
  "provenance": {
    "source": "Survey of India / OpenStreetMap Administrative Level 4",
    "license": "ODbL / Open Government Data (OGD) India",
    "state": "Tamil Nadu",
    "country": "India",
    "districts_count": 38
  },
  "features": [
    {
      "type": "Feature",
      "properties": {
        "NAME_1": "Tamil Nadu",
        "COUNTRY": "India",
        "ISO": "IN-TN",
        "TYPE": "State"
      },
      "geometry": {
        "type": "Polygon",
        "coordinates": [
          [
            [80.24, 13.55],
            [80.33, 13.35],
            [80.31, 13.15],
            [80.28, 13.00],
            [80.24, 12.80],
            [80.18, 12.50],
            [80.05, 12.20],
            [79.85, 11.95],
            [79.77, 11.75],
            [79.85, 11.20],
            [79.86, 10.75],
            [79.85, 10.30],
            [79.40, 10.20],
            [79.15, 9.90],
            [79.32, 9.28],
            [78.75, 9.15],
            [78.18, 8.80],
            [78.05, 8.50],
            [77.75, 8.20],
            [77.54, 8.07],
            [77.30, 8.25],
            [77.20, 8.50],
            [77.25, 8.90],
            [77.15, 9.30],
            [77.25, 9.70],
            [77.10, 10.15],
            [76.85, 10.45],
            [76.75, 10.75],
            [76.85, 11.00],
            [76.60, 11.25],
            [76.24, 11.45],
            [76.35, 11.60],
            [76.65, 11.70],
            [77.05, 11.75],
            [77.25, 11.90],
            [77.60, 12.10],
            [77.75, 12.50],
            [77.85, 12.75],
            [78.20, 12.85],
            [78.55, 12.95],
            [79.10, 13.05],
            [79.60, 13.25],
            [79.90, 13.45],
            [80.15, 13.55],
            [80.24, 13.55]
          ]
        ]
      }
    }
  ]
}
